{
  "type": "FeatureCollection",
  "features": [
    {
      "type": "Feature",
      "properties": {
        "norad_id": 34613,
        "name": "COSMOS 2251 DEB",
        "group": "cosmos-2251-debris",
        "lat": 36.94805827206216,
        "lon": -49.99441434686192,
        "alt_km": 804.7346540353174,
        "timestamp": "2025-12-02T07:10:09.511085+00:00",
        "meta_object_name": "COSMOS 2251 DEB",
        "meta_object_id": "1993-036WJ",
        "meta_epoch": "2025-12-01T07:59:51.308736",
        "meta_mean_motion": 14.26325991,
        "meta_eccentricity": 0.0110184,
        "meta_inclination": 73.9631,
        "meta_ra_of_asc_node": 299.264,
        "meta_arg_of_pericenter": 134.0927,
        "meta_mean_anomaly": 350.3581,
        "meta_ephemeris_type": 0,
        "meta_classification_type": "U",
        "meta_norad_cat_id": 34613,
        "meta_element_set_no": 999,
        "meta_rev_at_epoch": 86300,
        "meta_bstar": 0.001308725,
        "meta_mean_motion_dot": 3.327e-05,
        "meta_mean_motion_ddot": 0,
        "tle_line1": "1 34613U 93036WJ  25335.33323274  .00003327  00000+0  13087-2 0  9998",
        "tle_line2": "2 34613  73.9631 299.2640 0110184 134.0927 350.3581 14.26325991863005"
      },
      "geometry": {
        "type": "Point",
        "coordinates": [
          -49.99441434686192,
          36.94805827206216
        ]
      }
    },
    {
      "type": "Feature",
      "properties": {
        "norad_id": 34614,
        "name": "COSMOS 2251 DEB",
        "group": "cosmos-2251-debris",
        "lat": -61.113027108011586,
        "lon": -28.941135883491214,
        "alt_km": 778.3279179905348,
        "timestamp": "2025-12-02T07:10:09.511095+00:00",
        "meta_object_name": "COSMOS 2251 DEB",
        "meta_object_id": "1993-036WK",
        "meta_epoch": "2025-12-01T02:57:24.830784",
        "meta_mean_motion": 14.17031843,
        "meta_eccentricity": 0.01960492,
        "meta_inclination": 73.8807,
        "meta_ra_of_asc_node": 4.7818,
        "meta_arg_of_pericenter": 0.8812,
        "meta_mean_anomaly": 61.0793,
        "meta_ephemeris_type": 0,
        "meta_classification_type": "U",
        "meta_norad_cat_id": 34614,
        "meta_element_set_no": 999,
        "meta_rev_at_epoch": 84602,
        "meta_bstar": 0.0044777238,
        "meta_mean_motion_dot": 0.00010861,
        "meta_mean_motion_ddot": 0,
        "tle_line1": "1 34614U 93036WK  25335.12320406  .00010861  00000+0  44777-2 0  9991",
        "tle_line2": "2 34614  73.8807   4.7818 0196049   0.8812  61.0793 14.17031843846027"
      },
      "geometry": {
        "type": "Point",
        "coordinates": [
          -28.941135883491214,
          -61.113027108011586
        ]
      }
    },
    {
      "type": "Feature",
      "properties": {
        "norad_id": 34615,
        "name": "COSMOS 2251 DEB",
        "group": "cosmos-2251-debris",
        "lat": 65.0019319425518,
        "lon": 92.92732025123507,
        "alt_km": 1153.4213499800617,
        "timestamp": "2025-12-02T07:10:09.511106+00:00",
        "meta_object_name": "COSMOS 2251 DEB",
        "meta_object_id": "1993-036WL",
        "meta_epoch": "2025-12-01T17:17:48.207840",
        "meta_mean_motion": 13.52196517,
        "meta_eccentricity": 0.0402371,
        "meta_inclination": 74.0055,
        "meta_ra_of_asc_node": 311.8151,
        "meta_arg_of_pericenter": 221.3257,
        "meta_mean_anomaly": 319.7339,
        "meta_ephemeris_type": 0,
        "meta_classification_type": "U",
        "meta_norad_cat_id": 34615,
        "meta_element_set_no": 999,
        "meta_rev_at_epoch": 82666,
        "meta_bstar": 4.7218e-05,
        "meta_mean_motion_dot": 2.9e-07,
        "meta_mean_motion_ddot": 0,
        "tle_line1": "1 34615U 93036WL  25335.72069685  .00000029  00000+0  47218-4 0  9997",
        "tle_line2": "2 34615  74.0055 311.8151 0402371 221.3257 319.7339 13.52196517826664"
      },
      "geometry": {
        "type": "Point",
        "coordinates": [
          92.92732025123507,
          65.0019319425518
        ]
      }
    },
    {
      "type": "Feature",
      "properties": {
        "norad_id": 34619,
        "name": "COSMOS 2251 DEB",
        "group": "cosmos-2251-debris",
        "lat": 56.01387377061028,
        "lon": 14.891064608508389,
        "alt_km": 736.4596646141399,
        "timestamp": "2025-12-02T07:10:09.511116+00:00",
        "meta_object_name": "COSMOS 2251 DEB",
        "meta_object_id": "1993-036WQ",
        "meta_epoch": "2025-12-01T17:30:18.493344",
        "meta_mean_motion": 14.64596727,
        "meta_eccentricity": 0.0094545,
        "meta_inclination": 74.0445,
        "meta_ra_of_asc_node": 221.0957,
        "meta_arg_of_pericenter": 318.4852,
        "meta_mean_anomaly": 40.916,
        "meta_ephemeris_type": 0,
        "meta_classification_type": "U",
        "meta_norad_cat_id": 34619,
        "meta_element_set_no": 999,
        "meta_rev_at_epoch": 89137,
        "meta_bstar": 0.00025956,
        "meta_mean_motion_dot": 1.437e-05,
        "meta_mean_motion_ddot": 0,
        "tle_line1": "1 34619U 93036WQ  25335.72938071  .00001437  00000+0  25956-3 0  9993",
        "tle_line2": "2 34619  74.0445 221.0957 0094545 318.4852  40.9160 14.64596727891372"
      },
      "geometry": {
        "type": "Point",
        "coordinates": [
          14.891064608508389,
          56.01387377061028
        ]
      }
    },
    {
      "type": "Feature",
      "properties": {
        "norad_id": 34620,
        "name": "COSMOS 2251 DEB",
        "group": "cosmos-2251-debris",
        "lat": -43.27741726729707,
        "lon": 74.7098693706069,
        "alt_km": 700.0158512771213,
        "timestamp": "2025-12-02T07:10:09.511126+00:00",
        "meta_object_name": "COSMOS 2251 DEB",
        "meta_object_id": "1993-036WR",
        "meta_epoch": "2025-12-01T03:36:31.284576",
        "meta_mean_motion": 14.48767044,
        "meta_eccentricity": 0.00821374,
        "meta_inclination": 74.0518,
        "meta_ra_of_asc_node": 241.2393,
        "meta_arg_of_pericenter": 280.2687,
        "meta_mean_anomaly": 78.9218,
        "meta_ephemeris_type": 0,
        "meta_classification_type": "U",
        "meta_norad_cat_id": 34620,
        "meta_element_set_no": 999,
        "meta_rev_at_epoch": 86659,
        "meta_bstar": 0.0025952739,
        "meta_mean_motion_dot": 0.00010208,
        "meta_mean_motion_ddot": 0,
        "tle_line1": "1 34620U 93036WR  25335.15036209  .00010208  00000+0  25953-2 0  9996",
        "tle_line2": "2 34620  74.0518 241.2393 0082137 280.2687  78.9218 14.48767044866594"
      },
      "geometry": {
        "type": "Point",
        "coordinates": [
          74.7098693706069,
          -43.27741726729707
        ]
      }
    },
    {
      "type": "Feature",
      "properties": {
        "norad_id": 34622,
        "name": "COSMOS 2251 DEB",
        "group": "cosmos-2251-debris",
        "lat": 22.223902592546274,
        "lon": 139.03119624699303,
        "alt_km": 837.7455297728184,
        "timestamp": "2025-12-02T07:10:09.511136+00:00",
        "meta_object_name": "COSMOS 2251 DEB",
        "meta_object_id": "1993-036WT",
        "meta_epoch": "2025-12-01T17:46:43.256352",
        "meta_mean_motion": 14.21967244,
        "meta_eccentricity": 0.0103878,
        "meta_inclination": 74.0413,
        "meta_ra_of_asc_node": 326.7458,
        "meta_arg_of_pericenter": 52.0024,
        "meta_mean_anomaly": 128.5595,
        "meta_ephemeris_type": 0,
        "meta_classification_type": "U",
        "meta_norad_cat_id": 34622,
        "meta_element_set_no": 999,
        "meta_rev_at_epoch": 86303,
        "meta_bstar": 0.00092396,
        "meta_mean_motion_dot": 2.131e-05,
        "meta_mean_motion_ddot": 0,
        "tle_line1": "1 34622U 93036WT  25335.74077843  .00002131  00000+0  92396-3 0  9994",
        "tle_line2": "2 34622  74.0413 326.7458 0103878  52.0024 128.5595 14.21967244863038"
      },
      "geometry": {
        "type": "Point",
        "coordinates": [
          139.03119624699303,
          22.223902592546274
        ]
      }
    },
    {
      "type": "Feature",
      "properties": {
        "norad_id": 34626,
        "name": "COSMOS 2251 DEB",
        "group": "cosmos-2251-debris",
        "lat": -70.90417850479554,
        "lon": -140.0995822653508,
        "alt_km": 679.9842129218205,
        "timestamp": "2025-12-02T07:10:09.511146+00:00",
        "meta_object_name": "COSMOS 2251 DEB",
        "meta_object_id": "1993-036WX",
        "meta_epoch": "2025-12-01T11:06:03.866400",
        "meta_mean_motion": 14.71987061,
        "meta_eccentricity": 0.00261324,
        "meta_inclination": 74.0485,
        "meta_ra_of_asc_node": 345.8172,
        "meta_arg_of_pericenter": 77.9019,
        "meta_mean_anomaly": 72.2704,
        "meta_ephemeris_type": 0,
        "meta_classification_type": "U",
        "meta_norad_cat_id": 34626,
        "meta_element_set_no": 999,
        "meta_rev_at_epoch": 88978,
        "meta_bstar": 0.0010018458,
        "meta_mean_motion_dot": 6.294e-05,
        "meta_mean_motion_ddot": 0,
        "tle_line1": "1 34626U 93036WX  25335.46254475  .00006294  00000+0  10018-2 0  9999",
        "tle_line2": "2 34626  74.0485 345.8172 0026132  77.9019  72.2704 14.71987061889784"
      },
      "geometry": {
        "type": "Point",
        "coordinates": [
          -140.0995822653508,
          -70.90417850479554
        ]
      }
    }
  ]
}